OBJECT_NAME,OBJECT_ID,EPOCH,MEAN_MOTION,ECCENTRICITY,INCLINATION,RA_OF_ASC_NODE,ARG_OF_PERICENTER,MEAN_ANOMALY,EPHEMERIS_TYPE,CLASSIFICATION_TYPE,NORAD_CAT_ID,ELEMENT_SET_NO,REV_AT_EPOCH,BSTAR,MEAN_MOTION_DOT,MEAN_MOTION_DDOT
TIANMU-1 21,2023-208C,2026-06-06T03:58:13.036224,15.34878342,.0006866,97.4495,276.6684,8.1190,352.0163,0,U,58662,999,13587,.38133E-3,.12832E-3,0
TIANMU-1 22,2023-208D,2026-06-06T03:47:02.563584,15.30901595,.0004233,97.4490,273.3487,40.3573,319.7982,0,U,58663,999,13564,.32956E-3,.9768E-4,0
TIANMU-1 15,2024-004A,2026-06-06T05:17:25.869984,15.26909087,.0007757,97.4673,343.4095,38.7892,321.3903,0,U,58700,999,13410,.27506E-3,.7201E-4,0
TIANMU-1 16,2024-004B,2026-06-06T04:59:05.260992,15.26634430,.000687,97.4620,342.6460,43.3836,316.7942,0,U,58701,999,13410,.27915E-3,.7247E-4,0
TIANMU-1 17,2024-004C,2026-06-06T04:38:08.041632,15.26634475,.0006513,97.4647,343.1124,48.8629,311.3170,0,U,58702,999,13409,.28997E-3,.7531E-4,0
TIANMU-1 18,2024-004D,2026-06-06T04:06:48.460608,15.26892954,.0005004,97.4665,343.3392,48.0041,312.1623,0,U,58703,999,13409,.26894E-3,.7032E-4,0
INSAT-3DS,2024-033A,2026-06-05T22:27:48.989088,1.00273633,.0001378,0.0105,282.4459,150.3367,240.5999,0,U,58990,999,4695,0,-.143E-5,0
METEOR-M2 4,2024-039A,2026-06-06T05:02:30.111072,14.22428450,.0006634,98.7006,116.6465,192.8325,167.2685,0,U,59051,999,11770,.33502E-4,.31E-6,0
GOES 19,2024-119A,2026-06-05T23:25:32.543040,1.00270769,.000066,0.0383,144.9083,350.7635,34.9263,0,U,60133,999,685,0,-.235E-5,0
MTG-S1,2025-143A,2026-06-05T22:03:21.835872,1.00271626,.0001135,0.6131,336.4589,35.2853,209.9658,0,U,64723,999,330,0,-.19E-6,0
METOP-SGA1,2025-172A,2026-06-05T02:27:34.473312,14.21507730,.0000977,98.6647,216.0502,86.3817,273.7472,0,U,65159,999,4207,.44615E-4,.54E-6,0
FENGYUN 3H,2025-219A,2026-06-05T20:05:09.923424,14.19918467,.000163,98.6765,97.8270,86.2171,273.9192,0,U,65815,999,3577,.55999E-4,.76E-6,0
