TIANMU-1 21             
1 58662U 23208C   26157.16542866  .00012832  00000+0  38133-3 0  9997
2 58662  97.4495 276.6684 0006866   8.1190 352.0163 15.34878342135870
TIANMU-1 22             
1 58663U 23208D   26157.15766856  .00009768  00000+0  32956-3 0  9995
2 58663  97.4490 273.3487 0004233  40.3573 319.7982 15.30901595135647
TIANMU-1 15             
1 58700U 24004A   26157.22043831  .00007201  00000+0  27506-3 0  9996
2 58700  97.4673 343.4095 0007757  38.7892 321.3903 15.26909087134106
TIANMU-1 16             
1 58701U 24004B   26157.20769978  .00007247  00000+0  27915-3 0  9996
2 58701  97.4620 342.6460 0006870  43.3836 316.7942 15.26634430134109
TIANMU-1 17             
1 58702U 24004C   26157.19314863  .00007531  00000+0  28997-3 0  9991
2 58702  97.4647 343.1124 0006513  48.8629 311.3170 15.26634475134097
TIANMU-1 18             
1 58703U 24004D   26157.17139422  .00007032  00000+0  26894-3 0  9996
2 58703  97.4665 343.3392 0005004  48.0041 312.1623 15.26892954134091
INSAT-3DS               
1 58990U 24033A   26156.93598367 -.00000143  00000+0  00000+0 0  9990
2 58990   0.0105 282.4459 0001378 150.3367 240.5999  1.00273633 46954
METEOR-M2 4             
1 59051U 24039A   26157.21007073  .00000031  00000+0  33502-4 0  9999
2 59051  98.7006 116.6465 0006634 192.8325 167.2685 14.22428450117703
GOES 19                 
1 60133U 24119A   26156.97607110 -.00000235  00000+0  00000+0 0  9990
2 60133   0.0383 144.9083 0000660 350.7635  34.9263  1.00270769  6857
MTG-S1                  
1 64723U 25143A   26156.91900273 -.00000019  00000+0  00000+0 0  9997
2 64723   0.6131 336.4589 0001135  35.2853 209.9658  1.00271626  3309
METOP-SGA1              
1 65159U 25172A   26156.10248233  .00000054  00000+0  44615-4 0  9998
2 65159  98.6647 216.0502 0000977  86.3817 273.7472 14.21507730 42075
FENGYUN 3H              
1 65815U 25219A   26156.83692041  .00000076  00000+0  55999-4 0  9990
2 65815  98.6765  97.8270 0001630  86.2171 273.9192 14.19918467 35771
